[
  {
    "name": "ONEWEB-0198",
    "noradId": "48216",
    "line1": "1 48216U 21031G   26179.79660742 -.00000218  00000+0 -62190-3 0  9997",
    "line2": "2 48216  87.8962 287.3971 0002319 108.8896 251.2485 13.14503510250013"
  },
  {
    "name": "ONEWEB-0189",
    "noradId": "48217",
    "line1": "1 48217U 21031H   26179.80915090 -.00000033  00000+0 -12238-3 0  9992",
    "line2": "2 48217  87.8971 287.3820 0002219 107.7463 252.3909 13.14504040249755"
  },
  {
    "name": "ONEWEB-0196",
    "noradId": "48218",
    "line1": "1 48218U 21031J   26179.71083076 -.00000246  00000+0 -69823-3 0  9991",
    "line2": "2 48218  87.8973 287.4105 0002113 102.7814 257.3552 13.14503916249742"
  },
  {
    "name": "ONEWEB-0183",
    "noradId": "48219",
    "line1": "1 48219U 21031K   26179.83769222  .00000130  00000+0  31568-3 0  9994",
    "line2": "2 48219  87.8971 287.3829 0002018  95.0880 265.0480 13.14503732249858"
  },
  {
    "name": "ONEWEB-0185",
    "noradId": "48220",
    "line1": "1 48220U 21031L   26179.71162065 -.00000241  00000+0 -68418-3 0  9994",
    "line2": "2 48220  87.8979 287.4027 0002370  95.8826 264.2574 13.14503049249764"
  },
  {
    "name": "ONEWEB-0187",
    "noradId": "48221",
    "line1": "1 48221U 21031M   26179.84389766  .00000002  00000+0 -30445-4 0  9992",
    "line2": "2 48221  87.8971 287.3907 0002168 101.0779 259.0595 13.14501587249798"
  },
  {
    "name": "ONEWEB-0192",
    "noradId": "48222",
    "line1": "1 48222U 21031N   26179.81391524  .00000134  00000+0  32594-3 0  9996",
    "line2": "2 48222  87.8969 287.3872 0002015 103.5634 256.5721 13.14501735249704"
  },
  {
    "name": "ONEWEB-0219",
    "noradId": "48223",
    "line1": "1 48223U 21031P   26179.79328579 -.00000257  00000+0 -72861-3 0  9993",
    "line2": "2 48223  87.8974 287.3837 0002225 100.0092 260.1289 13.14502201249906"
  },
  {
    "name": "ONEWEB-0202",
    "noradId": "48224",
    "line1": "1 48224U 21031Q   26179.85038649 -.00000143  00000+0 -41893-3 0  9992",
    "line2": "2 48224  87.8974 287.3846 0002284 117.7871 242.3490 13.14503499249896"
  },
  {
    "name": "ONEWEB-0204",
    "noradId": "48225",
    "line1": "1 48225U 21031R   26179.80835185 -.00000045  00000+0 -15684-3 0  9998",
    "line2": "2 48225  87.8971 287.3876 0002039  88.4017 271.7346 13.14502570249784"
  },
  {
    "name": "ONEWEB-0205",
    "noradId": "48226",
    "line1": "1 48226U 21031S   26179.70765629 -.00000239  00000+0 -68019-3 0  9998",
    "line2": "2 48226  87.8982 287.4020 0002279 102.2827 257.8558 13.14501777249787"
  },
  {
    "name": "ONEWEB-0206",
    "noradId": "48227",
    "line1": "1 48227U 21031T   26179.83292725  .00000247  00000+0  63074-3 0  9998",
    "line2": "2 48227  87.8977 287.3778 0001760  98.8543 261.2786 13.14503605249751"
  },
  {
    "name": "ONEWEB-0182",
    "noradId": "48228",
    "line1": "1 48228U 21031U   26179.82818500  .00000180  00000+0  45198-3 0  9996",
    "line2": "2 48228  87.8972 287.3860 0001998  94.1128 266.0230 13.14503071249967"
  },
  {
    "name": "ONEWEB-0186",
    "noradId": "48229",
    "line1": "1 48229U 21031V   26179.83928237  .00000067  00000+0  14491-3 0  9993",
    "line2": "2 48229  87.8982 287.3754 0002095 100.7681 259.3685 13.14502994249915"
  },
  {
    "name": "ONEWEB-0181",
    "noradId": "48230",
    "line1": "1 48230U 21031W   26179.81707801  .00000201  00000+0  50632-3 0  9992",
    "line2": "2 48230  87.8962 287.4071 0002139 104.2172 255.9195 13.14503931249764"
  },
  {
    "name": "ONEWEB-0188",
    "noradId": "48231",
    "line1": "1 48231U 21031X   26179.85512798 -.00000215  00000+0 -61366-3 0  9999",
    "line2": "2 48231  87.8966 287.3990 0002043  99.7959 260.3402 13.14500661249671"
  },
  {
    "name": "ONEWEB-0220",
    "noradId": "48232",
    "line1": "1 48232U 21031Y   26179.81866164  .00000130  00000+0  31660-3 0  9993",
    "line2": "2 48232  87.8978 287.3810 0002299  99.1831 260.9559 13.14502909249937"
  },
  {
    "name": "ONEWEB-0165",
    "noradId": "48233",
    "line1": "1 48233U 21031Z   26179.84721946 -.00000060  00000+0 -19603-3 0  9992",
    "line2": "2 48233  87.8973 287.3873 0002216 109.1239 251.0130 13.14501537249892"
  },
  {
    "name": "ONEWEB-0199",
    "noradId": "48234",
    "line1": "1 48234U 21031AA  26179.83134918  .00000188  00000+0  47147-3 0  9992",
    "line2": "2 48234  87.8979 287.3772 0001797  97.8194 262.3140 13.14503418249798"
  },
  {
    "name": "ONEWEB-0203",
    "noradId": "48235",
    "line1": "1 48235U 21031AB  26179.82183679  .00001604  00000+0  42905-2 0  9990",
    "line2": "2 48235  87.8953 287.3837 0002292 101.0339 259.1048 13.14506623249807"
  },
  {
    "name": "ONEWEB-0197",
    "noradId": "48236",
    "line1": "1 48236U 21031AC  26179.79631286 -.00000446  00000+0 -12370-2 0  9997",
    "line2": "2 48236  87.8966 287.3725 0002121  94.2817 265.8555 13.14502759249716"
  },
  {
    "name": "ONEWEB-0194",
    "noradId": "48237",
    "line1": "1 48237U 21031AD  26179.69973660 -.00000239  00000+0 -67973-3 0  9992",
    "line2": "2 48237  87.8974 287.4141 0001723 102.4868 257.6455 13.14502271249878"
  },
  {
    "name": "ONEWEB-0193",
    "noradId": "48238",
    "line1": "1 48238U 21031AE  26179.79170305 -.00000246  00000+0 -69850-3 0  9993",
    "line2": "2 48238  87.8970 287.3865 0001537 103.6256 256.5045 13.14503402249830"
  },
  {
    "name": "ONEWEB-0191",
    "noradId": "48239",
    "line1": "1 48239U 21031AF  26179.80283929 -.00000079  00000+0 -24713-3 0  9996",
    "line2": "2 48239  87.8978 287.3836 0002012  95.7087 264.4272 13.14505303249695"
  },
  {
    "name": "ONEWEB-0195",
    "noradId": "48240",
    "line1": "1 48240U 21031AG  26179.85593464 -.00000212  00000+0 -60571-3 0  9992",
    "line2": "2 48240  87.8979 287.3735 0002277 107.6683 252.4696 13.14501832249683"
  },
  {
    "name": "ONEWEB-0201",
    "noradId": "48241",
    "line1": "1 48241U 21031AH  26179.84416603 -.00000030  00000+0 -11416-3 0  9993",
    "line2": "2 48241  87.8971 287.3909 0002192  94.3991 265.7390 13.14500954249917"
  },
  {
    "name": "ONEWEB-0207",
    "noradId": "48242",
    "line1": "1 48242U 21031AJ  26179.82421492  .00000218  00000+0  55226-3 0  9997",
    "line2": "2 48242  87.8976 287.3805 0002179  95.0089 265.1290 13.14503673249823"
  },
  {
    "name": "ONEWEB-0208",
    "noradId": "48243",
    "line1": "1 48243U 21031AK  26179.80597216 -.00000083  00000+0 -25967-3 0  9995",
    "line2": "2 48243  87.8973 287.3901 0002191 108.8790 251.2578 13.14504487249834"
  },
  {
    "name": "ONEWEB-0200",
    "noradId": "48244",
    "line1": "1 48244U 21031AL  26179.84562228  .00000005  00000+0 -22308-4 0  9995",
    "line2": "2 48244  87.8983 287.3698 0002084 101.7498 258.3866 13.14502632249767"
  },
  {
    "name": "ONEWEB-0217",
    "noradId": "48245",
    "line1": "1 48245U 21031AM  26179.70924230 -.00000206  00000+0 -58932-3 0  9991",
    "line2": "2 48245  87.8982 287.4014 0002188 109.3662 250.7704 13.14502075249692"
  }
]