OBJECT_NAME,OBJECT_ID,EPOCH,MEAN_MOTION,ECCENTRICITY,INCLINATION,RA_OF_ASC_NODE,ARG_OF_PERICENTER,MEAN_ANOMALY,EPHEMERIS_TYPE,CLASSIFICATION_TYPE,NORAD_CAT_ID,ELEMENT_SET_NO,REV_AT_EPOCH,BSTAR,MEAN_MOTION_DOT,MEAN_MOTION_DDOT
ONEWEB-0198,2021-031G,2026-06-28T19:07:06.881088,13.14503510,.00023192,87.8962,287.3971,108.8896,251.2485,0,U,48216,999,25001,-.6219028E-3,-.218E-5,0
ONEWEB-0189,2021-031H,2026-06-28T19:25:10.637760,13.14504040,.00022192,87.8971,287.3820,107.7463,252.3909,0,U,48217,999,24975,-.12237652E-3,-.33E-6,0
ONEWEB-0196,2021-031J,2026-06-28T17:03:35.777664,13.14503916,.00021132,87.8973,287.4105,102.7814,257.3552,0,U,48218,999,24974,-.69822613E-3,-.246E-5,0
ONEWEB-0183,2021-031K,2026-06-28T20:06:16.607808,13.14503732,.00020184,87.8971,287.3829,95.0880,265.0480,0,U,48219,999,24985,.31568359E-3,.13E-5,0
ONEWEB-0185,2021-031L,2026-06-28T17:04:44.024160,13.14503049,.00023704,87.8979,287.4027,95.8826,264.2574,0,U,48220,999,24976,-.68418176E-3,-.241E-5,0
ONEWEB-0187,2021-031M,2026-06-28T20:15:12.757824,13.14501587,.00021682,87.8971,287.3907,101.0779,259.0595,0,U,48221,999,24979,-.30444505E-4,.2E-7,0
ONEWEB-0192,2021-031N,2026-06-28T19:32:02.276736,13.14501735,.00020156,87.8969,287.3872,103.5634,256.5721,0,U,48222,999,24970,.32593712E-3,.134E-5,0
ONEWEB-0219,2021-031P,2026-06-28T19:02:19.892256,13.14502201,.00022254,87.8974,287.3837,100.0092,260.1289,0,U,48223,999,24990,-.72860717E-3,-.257E-5,0
ONEWEB-0202,2021-031Q,2026-06-28T20:24:33.392736,13.14503499,.00022846,87.8974,287.3846,117.7871,242.3490,0,U,48224,999,24989,-.41893216E-3,-.143E-5,0
ONEWEB-0204,2021-031R,2026-06-28T19:24:01.599840,13.14502570,.00020393,87.8971,287.3876,88.4017,271.7346,0,U,48225,999,24978,-.15683973E-3,-.45E-6,0
ONEWEB-0205,2021-031S,2026-06-28T16:59:01.503456,13.14501777,.00022794,87.8982,287.4020,102.2827,257.8558,0,U,48226,999,24978,-.68019478E-3,-.239E-5,0
ONEWEB-0206,2021-031T,2026-06-28T19:59:24.914400,13.14503605,.00017608,87.8977,287.3778,98.8543,261.2786,0,U,48227,999,24975,.63074293E-3,.247E-5,0
ONEWEB-0182,2021-031U,2026-06-28T19:52:35.184000,13.14503071,.00019989,87.8972,287.3860,94.1128,266.0230,0,U,48228,999,24996,.45197863E-3,.18E-5,0
ONEWEB-0186,2021-031V,2026-06-28T20:08:33.996768,13.14502994,.00020954,87.8982,287.3754,100.7681,259.3685,0,U,48229,999,24991,.14491116E-3,.67E-6,0
ONEWEB-0181,2021-031W,2026-06-28T19:36:35.540064,13.14503931,.00021399,87.8962,287.4071,104.2172,255.9195,0,U,48230,999,24976,.50631646E-3,.201E-5,0
ONEWEB-0188,2021-031X,2026-06-28T20:31:23.057472,13.14500661,.00020431,87.8966,287.3990,99.7959,260.3402,0,U,48231,999,24967,-.61366396E-3,-.215E-5,0
ONEWEB-0220,2021-031Y,2026-06-28T19:38:52.365696,13.14502909,.00022992,87.8978,287.3810,99.1831,260.9559,0,U,48232,999,24993,.3166004E-3,.13E-5,0
ONEWEB-0165,2021-031Z,2026-06-28T20:19:59.761344,13.14501537,.00022162,87.8973,287.3873,109.1239,251.0130,0,U,48233,999,24989,-.19603479E-3,-.6E-6,0
ONEWEB-0199,2021-031AA,2026-06-28T19:57:08.569152,13.14503418,.0001797,87.8979,287.3772,97.8194,262.3140,0,U,48234,999,24979,.47147458E-3,.188E-5,0
ONEWEB-0203,2021-031AB,2026-06-28T19:43:26.698656,13.14506623,.00022929,87.8953,287.3837,101.0339,259.1048,0,U,48235,999,24980,.42904982E-2,.1604E-4,0
ONEWEB-0197,2021-031AC,2026-06-28T19:06:41.431104,13.14502759,.00021214,87.8966,287.3725,94.2817,265.8555,0,U,48236,999,24971,-.12370386E-2,-.446E-5,0
ONEWEB-0194,2021-031AD,2026-06-28T16:47:37.242240,13.14502271,.00017234,87.8974,287.4141,102.4868,257.6455,0,U,48237,999,24987,-.6797341E-3,-.239E-5,0
ONEWEB-0193,2021-031AE,2026-06-28T19:00:03.143520,13.14503402,.00015371,87.8970,287.3865,103.6256,256.5045,0,U,48238,999,24983,-.69850465E-3,-.246E-5,0
ONEWEB-0191,2021-031AF,2026-06-28T19:16:05.314656,13.14505303,.00020123,87.8978,287.3836,95.7087,264.4272,0,U,48239,999,24969,-.24712778E-3,-.79E-6,0
ONEWEB-0195,2021-031AG,2026-06-28T20:32:32.752896,13.14501832,.00022773,87.8979,287.3735,107.6683,252.4696,0,U,48240,999,24968,-.60571464E-3,-.212E-5,0
ONEWEB-0201,2021-031AH,2026-06-28T20:15:35.944992,13.14500954,.00021928,87.8971,287.3909,94.3991,265.7390,0,U,48241,999,24991,-.11415633E-3,-.3E-6,0
ONEWEB-0207,2021-031AJ,2026-06-28T19:46:52.169088,13.14503673,.00021799,87.8976,287.3805,95.0089,265.1290,0,U,48242,999,24982,.552258E-3,.218E-5,0
ONEWEB-0208,2021-031AK,2026-06-28T19:20:35.994624,13.14504487,.00021916,87.8973,287.3901,108.8790,251.2578,0,U,48243,999,24983,-.25967118E-3,-.83E-6,0
ONEWEB-0200,2021-031AL,2026-06-28T20:17:41.764992,13.14502632,.00020847,87.8983,287.3698,101.7498,258.3866,0,U,48244,999,24976,-.22307926E-4,.5E-7,0
ONEWEB-0217,2021-031AM,2026-06-28T17:01:18.534720,13.14502075,.00021888,87.8982,287.4014,109.3662,250.7704,0,U,48245,999,24969,-.58932208E-3,-.206E-5,0
